{"type": "FeatureCollection", "features": [ {"type": "Feature", "properties": {"norad_id": 66910, "name": "1998-067XW", "group": "last-30-days", "lat": -49.32823511032173, "lon": -17.300549185797887, "alt_km": 410.36138212297556, "timestamp": "2025-12-22T04:03:37.888938+00:00", "meta": {"OBJECT_NAME": "1998-067XW", "OBJECT_ID": "1998-067XW", "EPOCH": "2025-12-21T16:09:10.414944", "MEAN_MOTION": 15.52740161, "ECCENTRICITY": 0.0004064, "INCLINATION": 51.6307, "RA_OF_ASC_NODE": 97.9437, "ARG_OF_PERICENTER": 256.0944, "MEAN_ANOMALY": 103.9594, "EPHEMERIS_TYPE": 0, "CLASSIFICATION_TYPE": "U", "NORAD_CAT_ID": 66910, "ELEMENT_SET_NO": 999, "REV_AT_EPOCH": 300, "BSTAR": 0.0009079, "MEAN_MOTION_DOT": 0.000571, "MEAN_MOTION_DDOT": 0}, "tle": {"line1": "1 66910U 98067XW  25355.67303721  .00057100  00000+0  90790-3 0  9991", "line2": "2 66910  51.6307  97.9437 0004064 256.0944 103.9594 15.52740161  3005"}}, "geometry": {"type": "Point", "coordinates": [-17.300549185797887, -49.32823511032173]}}, {"type": "Feature", "properties": {"norad_id": 66911, "name": "1998-067XX", "group": "last-30-days", "lat": -51.57994303870751, "lon": 8.133991819180766, "alt_km": 409.3390131555807, "timestamp": "2025-12-22T04:03:37.888950+00:00", "meta": {"OBJECT_NAME": "1998-067XX", "OBJECT_ID": "1998-067XX", "EPOCH": "2025-12-21T12:59:52.344384", "MEAN_MOTION": 15.53156659, "ECCENTRICITY": 0.0003822, "INCLINATION": 51.6308, "RA_OF_ASC_NODE": 98.5657, "ARG_OF_PERICENTER": 260.7512, "MEAN_ANOMALY": 99.3046, "EPHEMERIS_TYPE": 0, "CLASSIFICATION_TYPE": "U", "NORAD_CAT_ID": 66911, "ELEMENT_SET_NO": 999, "REV_AT_EPOCH": 297, "BSTAR": 0.00097482, "MEAN_MOTION_DOT": 0.00062319, "MEAN_MOTION_DDOT": 0}, "tle": {"line1": "1 66911U 98067XX  25355.54157806  .00062319  00000+0  97482-3 0  9992", "line2": "2 66911  51.6308  98.5657 0003822 260.7512  99.3046 15.53156659  2971"}}, "geometry": {"type": "Point", "coordinates": [8.133991819180766, -51.57994303870751]}}, {"type": "Feature", "properties": {"norad_id": 66912, "name": "1998-067XY", "group": "last-30-days", "lat": -25.643279129472237, "lon": -62.08553599180118, "alt_km": 412.9501126137502, "timestamp": "2025-12-22T04:03:37.888961+00:00", "meta": {"OBJECT_NAME": "1998-067XY", "OBJECT_ID": "1998-067XY", "EPOCH": "2025-12-21T11:41:25.287072", "MEAN_MOTION": 15.51934859, "ECCENTRICITY": 0.0004003, "INCLINATION": 51.6317, "RA_OF_ASC_NODE": 98.9521, "ARG_OF_PERICENTER": 271.7448, "MEAN_ANOMALY": 88.3083, "EPHEMERIS_TYPE": 0, "CLASSIFICATION_TYPE": "U", "NORAD_CAT_ID": 66912, "ELEMENT_SET_NO": 999, "REV_AT_EPOCH": 296, "BSTAR": 0.00071547257, "MEAN_MOTION_DOT": 0.0004353, "MEAN_MOTION_DDOT": 0}, "tle": {"line1": "1 66912U 98067XY  25355.48709823  .00043530  00000+0  71547-3 0  9996", "line2": "2 66912  51.6317  98.9521 0004003 271.7448  88.3083 15.51934859  2960"}}, "geometry": {"type": "Point", "coordinates": [-62.08553599180118, -25.643279129472237]}}, {"type": "Feature", "properties": {"norad_id": 66913, "name": "2025-284A", "group": "last-30-days", "lat": -52.68981610859261, "lon": 105.07786509332854, "alt_km": 539.7220653397608, "timestamp": "2025-12-22T04:03:37.888972+00:00", "meta": {"OBJECT_NAME": "2025-284A", "OBJECT_ID": "2025-284A", "EPOCH": "2025-12-21T20:20:25.955232", "MEAN_MOTION": 15.08871144, "ECCENTRICITY": 0.0013571, "INCLINATION": 80.4036, "RA_OF_ASC_NODE": 118.3065, "ARG_OF_PERICENTER": 264.2093, "MEAN_ANOMALY": 95.7582, "EPHEMERIS_TYPE": 0, "CLASSIFICATION_TYPE": "U", "NORAD_CAT_ID": 66913, "ELEMENT_SET_NO": 999, "REV_AT_EPOCH": 250, "BSTAR": 0.00044479, "MEAN_MOTION_DOT": 7.039e-05, "MEAN_MOTION_DDOT": 0}, "tle": {"line1": "1 66913U 25284A   25355.84752263  .00007039  00000+0  44479-3 0  9992", "line2": "2 66913  80.4036 118.3065 0013571 264.2093  95.7582 15.08871144  2507"}}, "geometry": {"type": "Point", "coordinates": [105.07786509332854, -52.68981610859261]}}, {"type": "Feature", "properties": {"norad_id": 66914, "name": "2025-284B", "group": "last-30-days", "lat": 62.85415926627533, "lon": -81.45223156313429, "alt_km": 503.451603735728, "timestamp": "2025-12-22T04:03:37.888982+00:00", "meta": {"OBJECT_NAME": "2025-284B", "OBJECT_ID": "2025-284B", "EPOCH": "2025-12-16T06:51:11.417184", "MEAN_MOTION": 15.18985981, "ECCENTRICITY": 0.00081793, "INCLINATION": 80.4045, "RA_OF_ASC_NODE": 125.2713, "ARG_OF_PERICENTER": 234.9626, "MEAN_ANOMALY": 125.0834, "EPHEMERIS_TYPE": 0, "CLASSIFICATION_TYPE": "U", "NORAD_CAT_ID": 66914, "ELEMENT_SET_NO": 999, "REV_AT_EPOCH": 166, "BSTAR": 0.00038444995, "MEAN_MOTION_DOT": 8.068e-05, "MEAN_MOTION_DDOT": 0}, "tle": {"line1": "1 66914U 25284B   25350.28554881  .00008068  00000+0  38445-3 0  9991", "line2": "2 66914  80.4045 125.2713 0008179 234.9626 125.0834 15.18985981  1668"}}, "geometry": {"type": "Point", "coordinates": [-81.45223156313429, 62.85415926627533]}}, {"type": "Feature", "properties": {"norad_id": 66915, "name": "HULIANWANG DIGUI-105", "group": "last-30-days", "lat": -7.702400334299921, "lon": 72.35548122847082, "alt_km": 877.6696444445861, "timestamp": "2025-12-22T04:03:37.888993+00:00", "meta": {"OBJECT_NAME": "HULIANWANG DIGUI-105", "OBJECT_ID": "2025-285A", "EPOCH": "2025-12-21T21:16:25.951008", "MEAN_MOTION": 14.03718447, "ECCENTRICITY": 0.0008064, "INCLINATION": 50.0051, "RA_OF_ASC_NODE": 80.0266, "ARG_OF_PERICENTER": 313.278, "MEAN_ANOMALY": 46.7451, "EPHEMERIS_TYPE": 0, "CLASSIFICATION_TYPE": "U", "NORAD_CAT_ID": 66915, "ELEMENT_SET_NO": 999, "REV_AT_EPOCH": 219, "BSTAR": 0.00011024, "MEAN_MOTION_DOT": 2.3e-07, "MEAN_MOTION_DDOT": 0}, "tle": {"line1": "1 66915U 25285A   25355.88641147  .00000023  00000+0  11024-3 0  9993", "line2": "2 66915  50.0051  80.0266 0008064 313.2780  46.7451 14.03718447  2192"}}, "geometry": {"type": "Point", "coordinates": [72.35548122847082, -7.702400334299921]}}, {"type": "Feature", "properties": {"norad_id": 66916, "name": "HULIANWANG DIGUI-106", "group": "last-30-days", "lat": 3.4614955916058614, "lon": 81.75979948915251, "alt_km": 878.36338377631, "timestamp": "2025-12-22T04:03:37.889005+00:00", "meta": {"OBJECT_NAME": "HULIANWANG DIGUI-106", "OBJECT_ID": "2025-285B", "EPOCH": "2025-12-21T21:12:16.521984", "MEAN_MOTION": 14.03703446, "ECCENTRICITY": 0.000684, "INCLINATION": 50.0081, "RA_OF_ASC_NODE": 80.013, "ARG_OF_PERICENTER": 306.5313, "MEAN_ANOMALY": 53.4961, "EPHEMERIS_TYPE": 0, "CLASSIFICATION_TYPE": "U", "NORAD_CAT_ID": 66916, "ELEMENT_SET_NO": 999, "REV_AT_EPOCH": 219, "BSTAR": 0.00010888, "MEAN_MOTION_DOT": 2.1e-07, "MEAN_MOTION_DDOT": 0}, "tle": {"line1": "1 66916U 25285B   25355.88352456  .00000021  00000+0  10888-3 0  9991", "line2": "2 66916  50.0081  80.0130 0006840 306.5313  53.4961 14.03703446  2197"}}, "geometry": {"type": "Point", "coordinates": [81.75979948915251, 3.4614955916058614]}}, {"type": "Feature", "properties": {"norad_id": 66917, "name": "HULIANWANG DIGUI-107", "group": "last-30-days", "lat": 10.425154672181671, "lon": 87.71123607013955, "alt_km": 877.2245415221823, "timestamp": "2025-12-22T04:03:37.889015+00:00", "meta": {"OBJECT_NAME": "HULIANWANG DIGUI-107", "OBJECT_ID": "2025-285C", "EPOCH": "2025-12-21T17:44:37.331808", "MEAN_MOTION": 14.03663234, "ECCENTRICITY": 0.0007498, "INCLINATION": 50.0026, "RA_OF_ASC_NODE": 80.5763, "ARG_OF_PERICENTER": 315.5278, "MEAN_ANOMALY": 44.5023, "EPHEMERIS_TYPE": 0, "CLASSIFICATION_TYPE": "U", "NORAD_CAT_ID": 66917, "ELEMENT_SET_NO": 999, "REV_AT_EPOCH": 217, "BSTAR": 0.0001009, "MEAN_MOTION_DOT": 8e-08, "MEAN_MOTION_DDOT": 0}, "tle": {"line1": "1 66917U 25285C   25355.73932097  .00000008  00000+0  10090-3 0  9991", "line2": "2 66917  50.0026  80.5763 0007498 315.5278  44.5023 14.03663234  2172"}}, "geometry": {"type": "Point", "coordinates": [87.71123607013955, 10.425154672181671]}}, {"type": "Feature", "properties": {"norad_id": 66918, "name": "HULIANWANG DIGUI-108", "group": "last-30-days", "lat": 13.159568808021254, "lon": 90.14215959583551, "alt_km": 878.0343295919783, "timestamp": "2025-12-22T04:03:37.889025+00:00", "meta": {"OBJECT_NAME": "HULIANWANG DIGUI-108", "OBJECT_ID": "2025-285D", "EPOCH": "2025-12-21T21:08:36.758400", "MEAN_MOTION": 14.03602331, "ECCENTRICITY": 0.0006639, "INCLINATION": 50.0049, "RA_OF_ASC_NODE": 79.9968, "ARG_OF_PERICENTER": 310.6088, "MEAN_ANOMALY": 49.4238, "EPHEMERIS_TYPE": 0, "CLASSIFICATION_TYPE": "U", "NORAD_CAT_ID": 66918, "ELEMENT_SET_NO": 999, "REV_AT_EPOCH": 219, "BSTAR": 0.0001078, "MEAN_MOTION_DOT": 1.9e-07, "MEAN_MOTION_DDOT": 0}, "tle": {"line1": "1 66918U 25285D   25355.88098100  .00000019  00000+0  10780-3 0  9994", "line2": "2 66918  50.0049  79.9968 0006639 310.6088  49.4238 14.03602331  2193"}}, "geometry": {"type": "Point", "coordinates": [90.14215959583551, 13.159568808021254]}}, {"type": "Feature", "properties": {"norad_id": 66919, "name": "HULIANWANG DIGUI-109", "group": "last-30-days", "lat": 18.9581952450281, "lon": 95.57258459292412, "alt_km": 875.9376542755199, "timestamp": "2025-12-22T04:03:37.889035+00:00", "meta": {"OBJECT_NAME": "HULIANWANG DIGUI-109", "OBJECT_ID": "2025-285E", "EPOCH": "2025-12-21T21:06:25.915104", "MEAN_MOTION": 14.0372654, "ECCENTRICITY": 0.0007893, "INCLINATION": 50.0073, "RA_OF_ASC_NODE": 79.9937, "ARG_OF_PERICENTER": 322.9313, "MEAN_ANOMALY": 37.1046, "EPHEMERIS_TYPE": 0, "CLASSIFICATION_TYPE": "U", "NORAD_CAT_ID": 66919, "ELEMENT_SET_NO": 999, "REV_AT_EPOCH": 219, "BSTAR": 0.0001174, "MEAN_MOTION_DOT": 3.4e-07, "MEAN_MOTION_DDOT": 0}, "tle": {"line1": "1 66919U 25285E   25355.87946661  .00000034  00000+0  11740-3 0  9992", "line2": "2 66919  50.0073  79.9937 0007893 322.9313  37.1046 14.03726540  2197"}}, "geometry": {"type": "Point", "coordinates": [95.57258459292412, 18.9581952450281]}}]}